[{"OBJECT_NAME":"STARLINK-5503","OBJECT_ID":"2023-094AR","EPOCH":"2026-03-09T06:04:47.166816","MEAN_MOTION":15.02537201,"ECCENTRICITY":0.00013551,"INCLINATION":43.0046,"RA_OF_ASC_NODE":19.7489,"ARG_OF_PERICENTER":265.0344,"MEAN_ANOMALY":95.0344,"EPHEMERIS_TYPE":0,"CLASSIFICATION_TYPE":"U","NORAD_CAT_ID":57257,"ELEMENT_SET_NO":999,"REV_AT_EPOCH":14786,"BSTAR":-2.5291791e-5,"MEAN_MOTION_DOT":-5.45e-6,"MEAN_MOTION_DDOT":0},{"OBJECT_NAME":"COSMOS 375 DEB","OBJECT_ID":"1970-091M","EPOCH":"2026-03-09T21:44:48.131232","MEAN_MOTION":13.05272126,"ECCENTRICITY":0.08929677,"INCLINATION":62.827,"RA_OF_ASC_NODE":15.1073,"ARG_OF_PERICENTER":207.7127,"MEAN_ANOMALY":147.3464,"EPHEMERIS_TYPE":0,"CLASSIFICATION_TYPE":"U","NORAD_CAT_ID":4635,"ELEMENT_SET_NO":999,"REV_AT_EPOCH":62876,"BSTAR":0.00016974909,"MEAN_MOTION_DOT":3.06e-6,"MEAN_MOTION_DDOT":0}]
